{"type": "FeatureCollection", "features": [ {"type": "Feature", "properties": {"norad_id": 66436, "name": "STARLINK-35501", "group": "last-30-days", "lat": 35.72139970489832, "lon": -151.03930182188844, "alt_km": 410.1706891899639, "timestamp": "2025-12-07T05:38:08.683651+00:00", "meta": {"OBJECT_NAME": "STARLINK-35501", "OBJECT_ID": "2025-259Q", "EPOCH": "2025-12-06T15:12:14.592672", "MEAN_MOTION": 15.50648591, "ECCENTRICITY": 0.00027231, "INCLINATION": 43.001, "RA_OF_ASC_NODE": 82.9871, "ARG_OF_PERICENTER": 267.8361, "MEAN_ANOMALY": 92.2187, "EPHEMERIS_TYPE": 0, "CLASSIFICATION_TYPE": "U", "NORAD_CAT_ID": 66436, "ELEMENT_SET_NO": 999, "REV_AT_EPOCH": 522, "BSTAR": 0.0027237366, "MEAN_MOTION_DOT": 0.00163234, "MEAN_MOTION_DDOT": 0}, "tle": {"line1": "1 66436U 25259Q   25340.63350223  .00163234  00000+0  27237-2 0  9997", "line2": "2 66436  43.0010  82.9871 0002723 267.8361  92.2187 15.50648591  5229"}}, "geometry": {"type": "Point", "coordinates": [-151.03930182188844, 35.72139970489832]}}, {"type": "Feature", "properties": {"norad_id": 66437, "name": "STARLINK-35474", "group": "last-30-days", "lat": 34.87306589144065, "lon": -148.9433816839244, "alt_km": 409.6222835156768, "timestamp": "2025-12-07T05:38:08.683661+00:00", "meta": {"OBJECT_NAME": "STARLINK-35474", "OBJECT_ID": "2025-259R", "EPOCH": "2025-12-06T13:38:59.664768", "MEAN_MOTION": 15.5063547, "ECCENTRICITY": 0.00013204, "INCLINATION": 43.0007, "RA_OF_ASC_NODE": 83.3599, "ARG_OF_PERICENTER": 274.8396, "MEAN_ANOMALY": 85.2313, "EPHEMERIS_TYPE": 0, "CLASSIFICATION_TYPE": "U", "NORAD_CAT_ID": 66437, "ELEMENT_SET_NO": 999, "REV_AT_EPOCH": 521, "BSTAR": 0.0021597842, "MEAN_MOTION_DOT": 0.00128725, "MEAN_MOTION_DDOT": 0}, "tle": {"line1": "1 66437U 25259R   25340.56874612  .00128725  00000+0  21598-2 0  9993", "line2": "2 66437  43.0007  83.3599 0001320 274.8396  85.2313 15.50635470  5210"}}, "geometry": {"type": "Point", "coordinates": [-148.9433816839244, 34.87306589144065]}}, {"type": "Feature", "properties": {"norad_id": 66438, "name": "STARLINK-34681", "group": "last-30-days", "lat": 33.849471688327945, "lon": -146.5745757831312, "alt_km": 409.27493587803383, "timestamp": "2025-12-07T05:38:08.683671+00:00", "meta": {"OBJECT_NAME": "STARLINK-34681", "OBJECT_ID": "2025-259S", "EPOCH": "2025-12-06T13:38:30.180768", "MEAN_MOTION": 15.5073296, "ECCENTRICITY": 0.00018147, "INCLINATION": 43.0007, "RA_OF_ASC_NODE": 83.3579, "ARG_OF_PERICENTER": 250.1755, "MEAN_ANOMALY": 109.8909, "EPHEMERIS_TYPE": 0, "CLASSIFICATION_TYPE": "U", "NORAD_CAT_ID": 66438, "ELEMENT_SET_NO": 999, "REV_AT_EPOCH": 510, "BSTAR": 0.0029956602, "MEAN_MOTION_DOT": 0.00180499, "MEAN_MOTION_DDOT": 0}, "tle": {"line1": "1 66438U 25259S   25340.56840487  .00180499  00000+0  29957-2 0  9990", "line2": "2 66438  43.0007  83.3579 0001814 250.1755 109.8909 15.50732960  5107"}}, "geometry": {"type": "Point", "coordinates": [-146.5745757831312, 33.849471688327945]}}, {"type": "Feature", "properties": {"norad_id": 66439, "name": "STARLINK-35327", "group": "last-30-days", "lat": 36.543381231348356, "lon": -153.20874324086972, "alt_km": 409.81745723036966, "timestamp": "2025-12-07T05:38:08.683681+00:00", "meta": {"OBJECT_NAME": "STARLINK-35327", "OBJECT_ID": "2025-259T", "EPOCH": "2025-12-06T13:39:59.056128", "MEAN_MOTION": 15.5062834, "ECCENTRICITY": 0.00019643, "INCLINATION": 43.0015, "RA_OF_ASC_NODE": 83.3681, "ARG_OF_PERICENTER": 282.6059, "MEAN_ANOMALY": 77.4582, "EPHEMERIS_TYPE": 0, "CLASSIFICATION_TYPE": "U", "NORAD_CAT_ID": 66439, "ELEMENT_SET_NO": 999, "REV_AT_EPOCH": 521, "BSTAR": 0.0023321839, "MEAN_MOTION_DOT": 0.00139182, "MEAN_MOTION_DDOT": 0}, "tle": {"line1": "1 66439U 25259T   25340.56943352  .00139182  00000+0  23322-2 0  9999", "line2": "2 66439  43.0015  83.3681 0001964 282.6059  77.4582 15.50628340  5219"}}, "geometry": {"type": "Point", "coordinates": [-153.20874324086972, 36.543381231348356]}}, {"type": "Feature", "properties": {"norad_id": 66440, "name": "STARLINK-35405", "group": "last-30-days", "lat": 32.205645991544706, "lon": -143.07987618709643, "alt_km": 409.4938495856413, "timestamp": "2025-12-07T05:38:08.683692+00:00", "meta": {"OBJECT_NAME": "STARLINK-35405", "OBJECT_ID": "2025-259U", "EPOCH": "2025-12-05T08:15:37.425888", "MEAN_MOTION": 15.50623801, "ECCENTRICITY": 0.00020429, "INCLINATION": 43.0001, "RA_OF_ASC_NODE": 90.5135, "ARG_OF_PERICENTER": 280.0264, "MEAN_ANOMALY": 80.0366, "EPHEMERIS_TYPE": 0, "CLASSIFICATION_TYPE": "U", "NORAD_CAT_ID": 66440, "ELEMENT_SET_NO": 999, "REV_AT_EPOCH": 502, "BSTAR": 0.0023681414, "MEAN_MOTION_DOT": 0.0014135, "MEAN_MOTION_DDOT": 0}, "tle": {"line1": "1 66440U 25259U   25339.34418317  .00141350  00000+0  23681-2 0  9991", "line2": "2 66440  43.0001  90.5135 0002042 280.0264  80.0366 15.50623801  5024"}}, "geometry": {"type": "Point", "coordinates": [-143.07987618709643, 32.205645991544706]}}, {"type": "Feature", "properties": {"norad_id": 66441, "name": "STARLINK-35426", "group": "last-30-days", "lat": 31.04455511682464, "lon": -140.79664946730432, "alt_km": 409.62515009626713, "timestamp": "2025-12-07T05:38:08.683703+00:00", "meta": {"OBJECT_NAME": "STARLINK-35426", "OBJECT_ID": "2025-259V", "EPOCH": "2025-12-05T08:15:07.746624", "MEAN_MOTION": 15.50636009, "ECCENTRICITY": 0.00024039, "INCLINATION": 43, "RA_OF_ASC_NODE": 90.5091, "ARG_OF_PERICENTER": 280.7143, "MEAN_ANOMALY": 79.3447, "EPHEMERIS_TYPE": 0, "CLASSIFICATION_TYPE": "U", "NORAD_CAT_ID": 66441, "ELEMENT_SET_NO": 999, "REV_AT_EPOCH": 502, "BSTAR": 0.0027168775, "MEAN_MOTION_DOT": 0.00162736, "MEAN_MOTION_DDOT": 0}, "tle": {"line1": "1 66441U 25259V   25339.34383966  .00162736  00000+0  27169-2 0  9999", "line2": "2 66441  43.0000  90.5091 0002403 280.7143  79.3447 15.50636009  5024"}}, "geometry": {"type": "Point", "coordinates": [-140.79664946730432, 31.04455511682464]}}, {"type": "Feature", "properties": {"norad_id": 66442, "name": "STARLINK-34724", "group": "last-30-days", "lat": 30.949682697511562, "lon": -140.6109385355268, "alt_km": 409.47656247164196, "timestamp": "2025-12-07T05:38:08.683712+00:00", "meta": {"OBJECT_NAME": "STARLINK-34724", "OBJECT_ID": "2025-259W", "EPOCH": "2025-12-06T13:37:01.226784", "MEAN_MOTION": 15.50746054, "ECCENTRICITY": 0.00014223, "INCLINATION": 43.0003, "RA_OF_ASC_NODE": 83.3503, "ARG_OF_PERICENTER": 255.0351, "MEAN_ANOMALY": 105.0352, "EPHEMERIS_TYPE": 0, "CLASSIFICATION_TYPE": "U", "NORAD_CAT_ID": 66442, "ELEMENT_SET_NO": 999, "REV_AT_EPOCH": 521, "BSTAR": 0.0031841465, "MEAN_MOTION_DOT": 0.00192258, "MEAN_MOTION_DDOT": 0}, "tle": {"line1": "1 66442U 25259W   25340.56737531  .00192258  00000+0  31841-2 0  9991", "line2": "2 66442  43.0003  83.3503 0001422 255.0351 105.0352 15.50746054  5217"}}, "geometry": {"type": "Point", "coordinates": [-140.6109385355268, 30.949682697511562]}}, {"type": "Feature", "properties": {"norad_id": 66443, "name": "STARLINK-35219", "group": "last-30-days", "lat": 29.985606172853913, "lon": -138.8182349307664, "alt_km": 409.6958709318724, "timestamp": "2025-12-07T05:38:08.683724+00:00", "meta": {"OBJECT_NAME": "STARLINK-35219", "OBJECT_ID": "2025-259X", "EPOCH": "2025-12-06T13:36:31.548384", "MEAN_MOTION": 15.50724046, "ECCENTRICITY": 0.00015671, "INCLINATION": 43.0012, "RA_OF_ASC_NODE": 83.3472, "ARG_OF_PERICENTER": 246.0575, "MEAN_ANOMALY": 114.0122, "EPHEMERIS_TYPE": 0, "CLASSIFICATION_TYPE": "U", "NORAD_CAT_ID": 66443, "ELEMENT_SET_NO": 999, "REV_AT_EPOCH": 510, "BSTAR": 0.0027615281, "MEAN_MOTION_DOT": 0.00166001, "MEAN_MOTION_DDOT": 0}, "tle": {"line1": "1 66443U 25259X   25340.56703181  .00166001  00000+0  27615-2 0  9997", "line2": "2 66443  43.0012  83.3472 0001567 246.0575 114.0122 15.50724046  5101"}}, "geometry": {"type": "Point", "coordinates": [-138.8182349307664, 29.985606172853913]}}, {"type": "Feature", "properties": {"norad_id": 66444, "name": "STARLINK-35360", "group": "last-30-days", "lat": 26.750088195534058, "lon": -133.32061155846364, "alt_km": 410.0882494673351, "timestamp": "2025-12-07T05:38:08.683734+00:00", "meta": {"OBJECT_NAME": "STARLINK-35360", "OBJECT_ID": "2025-259Y", "EPOCH": "2025-12-06T13:35:02.691168", "MEAN_MOTION": 15.50741615, "ECCENTRICITY": 0.00016982, "INCLINATION": 43.0009, "RA_OF_ASC_NODE": 83.3383, "ARG_OF_PERICENTER": 249.9829, "MEAN_ANOMALY": 110.0848, "EPHEMERIS_TYPE": 0, "CLASSIFICATION_TYPE": "U", "NORAD_CAT_ID": 66444, "ELEMENT_SET_NO": 999, "REV_AT_EPOCH": 521, "BSTAR": 0.0031292047, "MEAN_MOTION_DOT": 0.00188821, "MEAN_MOTION_DDOT": 0}, "tle": {"line1": "1 66444U 25259Y   25340.56600337  .00188821  00000+0  31292-2 0  9997", "line2": "2 66444  43.0009  83.3383 0001698 249.9829 110.0848 15.50741615  5212"}}, "geometry": {"type": "Point", "coordinates": [-133.32061155846364, 26.750088195534058]}}, {"type": "Feature", "properties": {"norad_id": 66445, "name": "STARLINK-34698", "group": "last-30-days", "lat": 28.929061431420457, "lon": -136.94373862387795, "alt_km": 409.82095698835656, "timestamp": "2025-12-07T05:38:08.683744+00:00", "meta": {"OBJECT_NAME": "STARLINK-34698", "OBJECT_ID": "2025-259Z", "EPOCH": "2025-12-06T13:36:01.846656", "MEAN_MOTION": 15.50730706, "ECCENTRICITY": 0.00016523, "INCLINATION": 43.0011, "RA_OF_ASC_NODE": 83.3434, "ARG_OF_PERICENTER": 246.4478, "MEAN_ANOMALY": 113.6208, "EPHEMERIS_TYPE": 0, "CLASSIFICATION_TYPE": "U", "NORAD_CAT_ID": 66445, "ELEMENT_SET_NO": 999, "REV_AT_EPOCH": 510, "BSTAR": 0.0028741918, "MEAN_MOTION_DOT": 0.00172984, "MEAN_MOTION_DDOT": 0}, "tle": {"line1": "1 66445U 25259Z   25340.56668804  .00172984  00000+0  28742-2 0  9990", "line2": "2 66445  43.0011  83.3434 0001652 246.4478 113.6208 15.50730706  5101"}}, "geometry": {"type": "Point", "coordinates": [-136.94373862387795, 28.929061431420457]}}]}